[{"OBJECT_NAME":"STARLINK-35200","OBJECT_ID":"2025-223B","EPOCH":"2026-03-09T22:35:50.501472","MEAN_MOTION":15.30206285,"ECCENTRICITY":9.463e-5,"INCLINATION":53.1606,"RA_OF_ASC_NODE":293.0452,"ARG_OF_PERICENTER":88.8161,"MEAN_ANOMALY":271.2948,"EPHEMERIS_TYPE":0,"CLASSIFICATION_TYPE":"U","NORAD_CAT_ID":65855,"ELEMENT_SET_NO":999,"REV_AT_EPOCH":2424,"BSTAR":0.001109,"MEAN_MOTION_DOT":0.00032637,"MEAN_MOTION_DDOT":0},{"OBJECT_NAME":"COSMOS 2251 DEB","OBJECT_ID":"1993-036BXP","EPOCH":"2026-03-04T07:23:49.847712","MEAN_MOTION":15.24789556,"ECCENTRICITY":0.00190834,"INCLINATION":73.9759,"RA_OF_ASC_NODE":64.3004,"ARG_OF_PERICENTER":239.4537,"MEAN_ANOMALY":120.4779,"EPHEMERIS_TYPE":0,"CLASSIFICATION_TYPE":"U","NORAD_CAT_ID":47059,"ELEMENT_SET_NO":999,"REV_AT_EPOCH":9543,"BSTAR":0.0048704033,"MEAN_MOTION_DOT":0.00123422,"MEAN_MOTION_DDOT":0}]
